[
  {
    "id": "58703U",
    "name": "TIANMU-1 18",
    "tle1": "1 58703U 24004D   25089.19768911  .00010060  00000+0  45537-3 0  9992",
    "tle2": "2 58703  97.4634 272.3468 0007112 114.6278 245.5699 15.21065660 68152",
    "category": "weather",
    "description": "TIANMU-1 18, launched in 2024, is a Chinese satellite providing data for weather forecasting and disaster monitoring.",
    "frequency": [],
    "modulation": "",
    "image": "/images/satellites/weather/tianmu118.jpg",
    "image_source": "https://wikipedia.org",
    "country_image": "/images/flags/china.png"
  },
  {
    "id": "58990U",
    "name": "INSAT-3DS",
    "tle1": "1 58990U 24033A   25089.05575233 -.00000159  00000+0  00000+0 0  9991",
    "tle2": "2 58990   0.0208 127.8305 0001721 234.1596 287.8399  1.00271473  4364",
    "category": "weather",
    "description": "INSAT-3DS, launched in 2024, is an Indian satellite designed for weather forecasting and disaster warning services.",
    "frequency": [],
    "modulation": "",
    "image": "/images/satellites/weather/insat3ds.jpg",
    "image_source": "https://wikipedia.org",
    "country_image": "/images/flags/india.png"
  },
  {
    "id": "59051U",
    "name": "METEOR-M2 4",
    "tle1": "1 59051U 24039A   25089.17327965  .00000127  00000+0  76437-4 0  9992",
    "tle2": "2 59051  98.6420  50.6671 0007548  24.1375 336.0155 14.22351924 56144",
    "category": "weather",
    "description": "METEOR-M2 4, launched in 2024, is a Russian satellite providing weather data and environmental monitoring capabilities.",
    "frequency": [],
    "modulation": "",
    "image": "/images/satellites/weather/meteorm.jpg",
    "image_source": "https://www.russianspaceweb.com/",
    "country_image": "/images/flags/russia.png"
  }
]